BEIDOU-3S IGSO-1S       
1 40549U 15019A   26170.99557403 -.00000176  00000+0  00000+0 0  9999
2 40549  49.1899 295.4270 0038863 191.0750 231.2891  1.00249609 41107
NAVSTAR 74 (USA 262)    
1 40730U 15033A   26170.71402533 -.00000051  00000+0  00000+0 0  9992
2 40730  53.9803 266.9823 0115094  30.2379 330.4622  2.00556101 80046
BEIDOU-3S M2S           
1 40748U 15037A   26170.47115793 -.00000084  00000+0  00000+0 0  9993
2 40748  54.8690 301.9679 0008432 258.8961 101.0039  1.86231851 74165
BEIDOU-3S M1S           
1 40749U 15037B   26167.45695291 -.00000070  00000+0  00000+0 0  9999
2 40749  54.8681 302.0590 0003448  61.6955 298.3263  1.86254753 74115
GSAT0205 (GALILEO 9)    
1 40889U 15045A   26144.30399159 -.00000014  00000+0  00000+0 0  9994
2 40889  54.9357 222.4171 0006405 263.0112  96.9692  1.67409242 66562
GSAT0206 (GALILEO 10)   
1 40890U 15045B   26169.04387372  .00000032  00000+0  00000+0 0  9997
2 40890  54.9444 221.5807 0001779 334.3054  25.7732  1.70473811 67050
BEIDOU-3S IGSO-2S       
1 40938U 15053A   26170.70984358 -.00000143  00000+0  00000+0 0  9995
2 40938  49.2167 258.7515 0065583 192.2245 167.5336  1.00258902 39370
NAVSTAR 75 (USA 265)    
1 41019U 15062A   26170.77000951 -.00000091  00000+0  00000+0 0  9993
2 41019  56.9611  30.7115 0112009 231.0751 127.9690  2.00567013 77882
GSAT-15                 
1 41028U 15065A   26171.05407052 -.00000263  00000+0  00000+0 0  9992
2 41028   0.0623 264.3518 0004380 166.6119 310.2862  1.00272702 38826
GSAT0209 (GALILEO 12)   
1 41174U 15079A   26169.21194997 -.00000011  00000+0  00000+0 0  9996
2 41174  55.8280 101.2339 0005250 345.1239  14.8344  1.70473656 64794
GSAT0208 (GALILEO 11)   
1 41175U 15079B   26170.60543083 -.00000012  00000+0  00000+0 0  9997
2 41175  55.8273 101.1925 0004854 343.5334  16.4302  1.70473634 65232
IRNSS-1E                
1 41241U 16003A   26169.73041566 -.00000318  00000+0  00000+0 0  9999
2 41241  33.2372  59.7280 0018940 178.9729  42.9724  1.00277463 38098
NAVSTAR 76 (USA 266)    
1 41328U 16007A   26164.87780105 -.00000028  00000+0  00000+0 0  9996
2 41328  55.5220  89.5909 0096120 247.4205 111.5460  2.00551861 75773
COSMOS 2514 [GLONASS-M] 
1 41330U 16008A   26170.63146802 -.00000059  00000+0  00000+0 0  9995
2 41330  65.0201 312.9226 0011376 198.2261 161.7251  2.13102571 80675
BEIDOU-2 IGSO-6         
1 41434U 16021A   26167.12386227 -.00000150  00000+0  00000+0 0  9994
2 41434  60.2243  38.0497 0057184 231.4868 132.3999  1.00259474 37472
IRNSS-1G                
1 41469U 16027A   26171.27504292 -.00000342  00000+0  00000+0 0  9996
2 41469   5.2047  97.4062 0007649 358.4603  41.0176  1.00258919 37214
GSAT0211 (GALILEO 14)   
1 41549U 16030A   26169.55617319  .00000029  00000+0  00000+0 0  9993
2 41549  55.0948 221.6573 0002964 322.3705  37.6930  1.70473904 62691
GSAT0210 (GALILEO 13)   
1 41550U 16030B   26169.22686126  .00000031  00000+0  00000+0 0  9994
2 41550  55.0944 221.6643 0005022 247.0655 112.9679  1.70473788 62688
BEIDOU-2 G7             
1 41586U 16037A   26170.98615006 -.00000359  00000+0  00000+0 0  9998
2 41586   1.7279  69.3466 0006467 357.9747 306.3915  1.00275081  6918
EUTELSAT 117 WEST B     
1 41589U 16038B   26171.27630992 -.00000017  00000+0  00000+0 0  9997
2 41589   0.0119 154.2662 0000493 334.0752 122.6398  1.00272245 36694
GSAT0207 (GALILEO 15)   
1 41859U 16069A   26170.67835764 -.00000013  00000+0  00000+0 0  9994
2 41859  55.5002 101.0173 0005217 330.9828  28.9678  1.70473648 59449
GSAT0212 (GALILEO 16)   
1 41860U 16069B   26169.94520460 -.00000012  00000+0  00000+0 0  9997
2 41860  55.4975 101.0327 0004607   1.4092 358.5693  1.70473680 59686
GSAT0213 (GALILEO 17)   
1 41861U 16069C   26170.89901147 -.00000014  00000+0  00000+0 0  9991
2 41861  55.5002 101.0142 0004814 312.9981  46.9417  1.70474134 59565
GSAT0214 (GALILEO 18)   
1 41862U 16069D   26169.87201710 -.00000012  00000+0  00000+0 0  9995
2 41862  55.4996 101.0352 0004721 311.5610  48.3755  1.70473520 59672
SES-15                  
1 42709U 17026A   26171.27065080  .00000055  00000+0  00000+0 0  9991
2 42709   0.0195 339.2017 0000434  78.4572 179.0837  1.00268891  7465
QZS-2 (MICHIBIKI-2)     
1 42738U 17028A   26170.47837747 -.00000184  00000+0  00000+0 0  9997
2 42738  39.4240 243.1214 0758837 269.2922  69.3071  1.00283355  7645
QZS-3 (MICHIBIKI-3)     
1 42917U 17048A   26171.27460958 -.00000352  00000+0  00000+0 0  9990
2 42917   0.0562 161.6436 0001982 282.4433  50.2662  1.00274737 32299
COSMOS 2522 [GLONASS-M] 
1 42939U 17055A   26169.06146248  .00000058  00000+0  00000+0 0  9991
2 42939  64.0788 191.8550 0011120 242.4701 117.4658  2.13102224 67996
QZS-4 (MICHIBIKI-4)     
1 42965U 17062A   26169.35012919 -.00000360  00000+0  00000+0 0  9994
2 42965  40.1070 343.4662 0745019 271.8091 274.2172  1.00250086 31812
BEIDOU-3 M1             
1 43001U 17069A   26168.13305361 -.00000051  00000+0  00000+0 0  9991
2 43001  56.6923  63.0864 0010443 325.9765  33.9976  1.86230842 58607
BEIDOU-3 M2             
1 43002U 17069B   26170.75658747 -.00000066  00000+0  00000+0 0  9998
2 43002  56.6931  63.0362 0009109 351.9115   8.1147  1.86230559 58648
